NORAD_CAT_ID,OBJECT_NAME,OBJECT_TYPE,EPOCH,MEAN_MOTION,ECCENTRICITY,INCLINATION,RA_OF_ASC_NODE,ARG_OF_PERICENTER,MEAN_ANOMALY,BSTAR,MEAN_MOTION_DOT,MEAN_MOTION_DDOT,TLE_LINE0,TLE_LINE1,TLE_LINE2,SEMIMAJOR_AXIS,PERIOD,APOGEE,PERIGEE,DECAYED
53258.0,STARLINK-4127,PAYLOAD,2023-02-01 13:53:00,15.08836852,0.0001095,53.2145,236.3688,75.3442,284.7671,-8.2789e-06,-4.2e-06,0.0,0 STARLINK-4127,1 53258U 22086S   23032.57848323 -.00000420  00000-0 -82789-5 0  9998,2 53258  53.2145 236.3688 0001095  75.3442 284.7671 15.08836852 30151,6917.89,95.438,540.513,538.998,0.0
53258.0,STARLINK-4127,PAYLOAD,2023-02-01 23:25:19,15.08839694,0.0001124,53.2147,234.5839,79.0494,281.0624,1.1848e-05,-9.9e-07,0.0,0 STARLINK-4127,1 53258U 22086S   23032.97592083 -.00000099  00000-0  11848-4 0  9999,2 53258  53.2147 234.5839 0001124  79.0494 281.0624 15.08839694 30034,6917.881,95.438,540.524,538.969,0.0
53258.0,STARLINK-4127,PAYLOAD,2023-02-02 05:46:52,15.0883593,0.0001155,53.2149,233.394,78.0616,282.0506,2.4397e-05,1e-06,0.0,0 STARLINK-4127,1 53258U 22086S   23033.24088316  .00000100  00000-0  24397-4 0  9994,2 53258  53.2149 233.3940 0001155  78.0616 282.0506 15.08835930 30258,6917.893,95.438,540.557,538.959,0.0
53258.0,STARLINK-4127,PAYLOAD,2023-02-03 05:37:39,15.0883717,0.0001197,53.2151,228.9334,77.5152,282.5974,2.1194e-05,4.9e-07,0.0,0 STARLINK-4127,1 53258U 22086S   23034.23448441  .00000049  00000-0  21194-4 0  9997,2 53258  53.2151 228.9334 0001197  77.5152 282.5974 15.08837170 30222,6917.889,95.438,540.582,538.926,0.0
53258.0,STARLINK-4127,PAYLOAD,2023-02-03 08:48:25,15.08834422,0.0001251,53.2144,228.3393,81.5207,278.5927,5.1815e-06,-2.05e-06,0.0,0 STARLINK-4127,1 53258U 22086S   23034.36696702 -.00000205  00000-0  51815-5 0  9995,2 53258  53.2144 228.3393 0001251  81.5207 278.5927 15.08834422 30422,6917.897,95.438,540.628,538.897,0.0
53258.0,STARLINK-4127,PAYLOAD,2023-02-04 07:03:49,15.08838217,0.0001272,53.2146,224.1759,80.8416,279.272,3.5609e-05,2.79e-06,0.0,0 STARLINK-4127,1 53258U 22086S   23035.29432559  .00000279  00000-0  35609-4 0  9998,2 53258  53.2146 224.1759 0001272  80.8416 279.2720 15.08838217 30381,6917.886,95.438,540.631,538.871,0.0
53258.0,STARLINK-4127,PAYLOAD,2023-02-04 21:22:17,15.08841721,0.0001196,53.2149,221.4993,87.1341,272.9788,4.7514e-05,4.68e-06,0.0,0 STARLINK-4127,1 53258U 22086S   23035.89048277  .00000468  00000-0  47514-4 0  9992,2 53258  53.2149 221.4993 0001196  87.1341 272.9788 15.08841721 30654,6917.875,95.437,540.568,538.913,0.0
53258.0,STARLINK-4127,PAYLOAD,2023-02-05 13:16:09,15.08832912,0.0001239,53.215,218.5255,85.2824,274.8309,7.9052e-06,-1.62e-06,0.0,0 STARLINK-4127,1 53258U 22086S   23036.55289089 -.00000162  00000-0  79052-5 0  9999,2 53258  53.2150 218.5255 0001239  85.2824 274.8309 15.08832912 30570,6917.902,95.438,540.624,538.91,0.0
53258.0,STARLINK-4127,PAYLOAD,2023-02-05 19:37:42,15.0883623,0.0001219,53.2151,217.336,84.9668,275.1464,2.3437e-05,8.5e-07,0.0,0 STARLINK-4127,1 53258U 22086S   23036.81784894  .00000085  00000-0  23437-4 0  9990,2 53258  53.2151 217.3360 0001219  84.9668 275.1464 15.08836230 30792,6917.892,95.438,540.6,538.914,0.0
53258.0,STARLINK-4127,PAYLOAD,2023-02-06 11:31:33,15.08839903,0.0001235,53.2151,214.3623,85.0402,275.0731,1.9654e-05,2.5e-07,0.0,0 STARLINK-4127,1 53258U 22086S   23037.48024735  .00000025  00000-0  19654-4 0  9995,2 53258  53.2151 214.3623 0001235  85.0402 275.0731 15.08839903 30715,6917.881,95.438,540.6,538.891,0.0
53258.0,STARLINK-4127,PAYLOAD,2023-02-06 21:03:51,15.08848075,0.0001262,53.215,212.5782,85.0189,275.0947,5.645e-05,6.11e-06,0.0,0 STARLINK-4127,1 53258U 22086S   23037.87768028  .00000611  00000-0  56450-4 0  9994,2 53258  53.2150 212.5782 0001262  85.0189 275.0947 15.08848075 30777,6917.856,95.437,540.594,538.848,0.0
53258.0,STARLINK-4127,PAYLOAD,2023-02-07 05:00:47,15.08830688,0.0001236,53.2149,211.0914,87.9979,272.1154,0.00018732,2.694e-05,0.0,0 STARLINK-4127,1 53258U 22086S   23038.20888688  .00002694  00000-0  18732-3 0  9990,2 53258  53.2149 211.0914 0001236  87.9979 272.1154 15.08830688 30820,6917.909,95.438,540.629,538.919,0.0
53258.0,STARLINK-4127,PAYLOAD,2023-02-07 14:33:06,15.08838262,0.0001299,53.2148,209.3074,85.0173,275.0967,5.9898e-05,6.65e-06,0.0,0 STARLINK-4127,1 53258U 22086S   23038.60632553  .00000665  00000-0  59898-4 0  9997,2 53258  53.2148 209.3074 0001299  85.0173 275.0967 15.08838262 31067,6917.886,95.438,540.649,538.852,0.0
53258.0,STARLINK-4127,PAYLOAD,2023-02-07 17:43:52,15.08841122,0.0001342,53.2148,208.7126,84.5311,275.5834,7.6577e-05,9.31e-06,0.0,0 STARLINK-4127,1 53258U 22086S   23038.73880314  .00000931  00000-0  76577-4 0  9990,2 53258  53.2148 208.7126 0001342  84.5311 275.5834 15.08841122 30904,6917.877,95.437,540.67,538.814,0.0
53258.0,STARLINK-4127,PAYLOAD,2023-02-08 14:23:53,15.08837794,9.94e-05,53.2164,204.8464,111.2888,248.8211,-6.0892e-05,-1.257e-05,0.0,0 STARLINK-4127,1 53258U 22086S   23039.59992466 -.00001257  00000-0 -60892-4 0  9994,2 53258  53.2164 204.8464 0000994 111.2888 248.8211 15.08837794 31210,6917.887,95.438,540.44,539.064,0.0
53258.0,STARLINK-4127,PAYLOAD,2023-02-08 17:34:40,15.08834866,0.0001144,53.2156,204.2503,107.3785,252.7332,-0.00010679,-1.987e-05,0.0,0 STARLINK-4127,1 53258U 22086S   23039.73240878 -.00001987  00000-0 -10679-3 0  9990,2 53258  53.2156 204.2503 0001144 107.3785 252.7332 15.08834866 31056,6917.896,95.438,540.552,538.97,0.0
53258.0,STARLINK-4127,PAYLOAD,2023-02-08 20:45:26,15.08839205,8.27e-05,53.2168,203.6562,104.1842,255.9242,-0.00017226,-3.028e-05,0.0,0 STARLINK-4127,1 53258U 22086S   23039.86488807 -.00003028  00000-0 -17226-3 0  9993,2 53258  53.2168 203.6562 0000827 104.1842 255.9242 15.08839205 31252,6917.883,95.438,540.32,539.176,0.0
53258.0,STARLINK-4127,PAYLOAD,2023-02-09 11:03:53,15.08847437,0.0001125,53.2161,200.9814,89.5515,270.5606,5.91e-05,6.53e-06,0.0,0 STARLINK-4127,1 53258U 22086S   23040.46103513  .00000653  00000-0  59100-4 0  9996,2 53258  53.2161 200.9814 0001125  89.5515 270.5606 15.08847437 31343,6917.858,95.437,540.501,538.944,0.0
53258.0,STARLINK-4127,PAYLOAD,2023-02-09 17:25:24,15.08864556,0.0001027,53.2162,199.7923,85.2186,274.8924,0.00019889,2.881e-05,0.0,0 STARLINK-4127,1 53258U 22086S   23040.72597800  .00002881  00000-0  19889-3 0  9995,2 53258  53.2162 199.7923 0001027  85.2186 274.8924 15.08864556 31204,6917.805,95.436,540.381,538.96,0.0
53258.0,STARLINK-4127,PAYLOAD,2023-02-10 02:57:44,15.08853423,7.93e-05,53.2166,198.0054,91.5548,268.5535,-0.00014143,-2.539e-05,0.0,0 STARLINK-4127,1 53258U 22086S   23041.12343017 -.00002539  00000-0 -14143-3 0  9999,2 53258  53.2166 198.0054 0000793  91.5548 268.5535 15.08853423 31441,6917.839,95.437,540.253,539.156,0.0
53258.0,STARLINK-4127,PAYLOAD,2023-02-10 15:40:51,15.0881442,9.98e-05,53.2163,195.6278,103.3931,256.7173,-1.131e-05,-4.68e-06,0.0,0 STARLINK-4127,1 53258U 22086S   23041.65337629 -.00000468  00000-0 -11310-4 0  9992,2 53258  53.2163 195.6278 0000998 103.3931 256.7173 15.08814420 31344,6917.959,95.439,540.514,539.133,0.0
53258.0,STARLINK-4127,PAYLOAD,2023-02-11 02:48:33,15.08825523,0.0001249,53.2173,193.5501,117.3391,242.7729,2.7786e-05,1.54e-06,0.0,0 STARLINK-4127,1 53258U 22086S   23042.11705294  .00000154  00000-0  27786-4 0  9995,2 53258  53.2173 193.5501 0001249 117.3391 242.7729 15.08825523 31412,6917.925,95.438,540.654,538.926,0.0
53258.0,STARLINK-4127,PAYLOAD,2023-02-11 18:42:24,15.08844011,9.58e-05,53.2166,190.5744,95.8875,264.2226,-0.00014518,-2.598e-05,0.0,0 STARLINK-4127,1 53258U 22086S   23042.77944781 -.00002598  00000-0 -14518-3 0  9997,2 53258  53.2166 190.5744 0000958  95.8875 264.2226 15.08844011 31518,6917.868,95.437,540.396,539.07,0.0
53258.0,STARLINK-4127,PAYLOAD,2023-02-12 02:39:19,15.08849207,0.0001063,53.2169,189.0873,83.2835,276.8278,-0.00010799,-2.006e-05,0.0,0 STARLINK-4127,1 53258U 22086S   23043.11064373 -.00002006  00000-0 -10799-3 0  9997,2 53258  53.2169 189.0873 0001063  83.2835 276.8278 15.08849207 31745,6917.852,95.437,540.453,538.982,0.0
53258.0,STARLINK-4127,PAYLOAD,2023-02-13 02:30:07,15.08834697,9.94e-05,53.2171,184.6285,90.1066,270.004,0.00010963,1.457e-05,0.0,0 STARLINK-4127,1 53258U 22086S   23044.10425369  .00001457  00000-0  10963-3 0  9993,2 53258  53.2171 184.6285 0000994  90.1066 270.0040 15.08834697 31718,6917.897,95.438,540.449,539.074,0.0
53258.0,STARLINK-4127,PAYLOAD,2023-02-13 12:02:26,15.08830404,0.0001103,53.216,182.8435,89.1848,270.9271,8.0773e-05,9.98e-06,0.0,0 STARLINK-4127,1 53258U 22086S   23044.50169934  .00000998  00000-0  80773-4 0  9996,2 53258  53.2160 182.8435 0001103  89.1848 270.9271 15.08830404 31955,6917.91,95.438,540.538,539.012,0.0
53258.0,STARLINK-4127,PAYLOAD,2023-02-14 08:42:27,15.08835531,0.0001534,53.2162,178.9794,75.6159,284.5003,2.4034e-05,9.4e-07,0.0,0 STARLINK-4127,1 53258U 22086S   23045.36282014  .00000094  00000-0  24034-4 0  9991,2 53258  53.2162 178.9794 0001534  75.6159 284.5003 15.08835531 31909,6917.894,95.438,540.82,538.698,0.0
53258.0,STARLINK-4127,PAYLOAD,2023-02-14 15:03:59,15.08841299,0.0001141,53.2175,177.7873,87.6688,272.4435,8.5414e-05,1.072e-05,0.0,0 STARLINK-4127,1 53258U 22086S   23045.62777399  .00001072  00000-0  85414-4 0  9991,2 53258  53.2175 177.7873 0001141  87.6688 272.4435 15.08841299 32120,6917.876,95.437,540.531,538.952,0.0
53258.0,STARLINK-4127,PAYLOAD,2023-02-14 18:14:45,15.08854675,0.0001184,53.2155,177.1938,80.7034,279.4092,6.6704e-05,7.74e-06,0.0,0 STARLINK-4127,1 53258U 22086S   23045.76024585  .00000774  00000-0  66704-4 0  9997,2 53258  53.2155 177.1938 0001184  80.7034 279.4092 15.08854675 31969,6917.836,95.437,540.52,538.881,0.0
53258.0,STARLINK-4127,PAYLOAD,2023-02-15 02:11:41,15.08840646,0.0001285,53.2149,175.7076,77.1927,282.9208,2.4146e-05,9.6e-07,0.0,0 STARLINK-4127,1 53258U 22086S   23046.09145441  .00000096  00000-0  24146-4 0  9990,2 53258  53.2149 175.7076 0001285  77.1927 282.9208 15.08840646 32010,6917.878,95.438,540.632,538.854,0.0
